start=new Date('2022-07-06T00:00:00.000Z').valueOf();
sats=[{"EPHEMERIS_TYPE":"0","PERIAPSIS":"546.200","RCS_SIZE":"LARGE","OBJECT_TYPE":"PAYLOAD","ECCENTRICITY":"0.00014830","OBJECT_ID":"2021-012AP","MEAN_ANOMALY":"271.7390","COUNTRY_CODE":"US","OBJECT_NAME":"STARLINK-2041","APOAPSIS":"548.254","SITE":"AFETR","LAUNCH_DATE":"2021-02-16","ARG_OF_PERICENTER":"88.3769","REF_FRAME":"TEME","CLASSIFICATION_TYPE":"U","MEAN_MOTION_DDOT":"0.0000000000000","MEAN_MOTION":"15.06395761","GP_ID":"207476892","TLE_LINE1":"1 47657U 21012AP  22186.57585708 -.00000956  00000-0 -45297-4 0  9992","TIME_SYSTEM":"UTC","REV_AT_EPOCH":"7754","ELEMENT_SET_NO":"999","INCLINATION":"53.0552","PERIOD":"95.592","TLE_LINE2":"2 47657  53.0552 341.1041 0001483  88.3769 271.7390 15.06395761 77547","DECAY_DATE":null,"CENTER_NAME":"EARTH","RA_OF_ASC_NODE":"341.1041","MEAN_ELEMENT_THEORY":"SGP4","NORAD_CAT_ID":"47657","FILE":"3508171","BSTAR":"-0.00004529700000","EPOCH":"2022-07-05T13:49:14.051712","MEAN_MOTION_DOT":"-0.00000956","SEMIMAJOR_AXIS":"6925.362"},{"NORAD_CAT_ID":"47658","FILE":"3508171","MEAN_ELEMENT_THEORY":"SGP4","RA_OF_ASC_NODE":"341.1325","CENTER_NAME":"EARTH","BSTAR":"-0.00000460130000","EPOCH":"2022-07-05T13:38:35.959200","MEAN_MOTION_DOT":"-0.00000350","SEMIMAJOR_AXIS":"6925.327","TLE_LINE1":"1 47658U 21012AQ  22186.56847175 -.00000350  00000-0 -46013-5 0  9997","TIME_SYSTEM":"UTC","GP_ID":"207476146","PERIOD":"95.592","TLE_LINE2":"2 47658  53.0569 341.1325 0001353  85.7745 274.3399 15.06406887 77564","DECAY_DATE":null,"REV_AT_EPOCH":"7756","ELEMENT_SET_NO":"999","INCLINATION":"53.0569","LAUNCH_DATE":"2021-02-16","COUNTRY_CODE":"US","OBJECT_NAME":"STARLINK-2042","APOAPSIS":"548.129","SITE":"AFETR","CLASSIFICATION_TYPE":"U","MEAN_MOTION_DDOT":"0.0000000000000","MEAN_MOTION":"15.06406887","REF_FRAME":"TEME","ARG_OF_PERICENTER":"85.7745","EPHEMERIS_TYPE":"0","PERIAPSIS":"546.255","OBJECT_ID":"2021-012AQ","ECCENTRICITY":"0.00013530","MEAN_ANOMALY":"274.3399","RCS_SIZE":"LARGE","OBJECT_TYPE":"PAYLOAD"},{"EPHEMERIS_TYPE":"0","PERIAPSIS":"546.277","ECCENTRICITY":"0.00013730","OBJECT_ID":"2021-012AR","MEAN_ANOMALY":"285.7715","RCS_SIZE":"LARGE","OBJECT_TYPE":"PAYLOAD","LAUNCH_DATE":"2021-02-16","COUNTRY_CODE":"US","APOAPSIS":"548.179","OBJECT_NAME":"STARLINK-2043","SITE":"AFETR","CLASSIFICATION_TYPE":"U","MEAN_MOTION_DDOT":"0.0000000000000","MEAN_MOTION":"15.06395270","ARG_OF_PERICENTER":"74.3425","REF_FRAME":"TEME","TIME_SYSTEM":"UTC","TLE_LINE1":"1 47659U 21012AR  22186.39525238 -.00002049  00000-0 -11869-3 0  9998","GP_ID":"207475895","PERIOD":"95.592","DECAY_DATE":null,"TLE_LINE2":"2 47659  53.0541 221.9133 0001373  74.3425 285.7715 15.06395270 79178","REV_AT_EPOCH":"7917","ELEMENT_SET_NO":"999","INCLINATION":"53.0541","NORAD_CAT_ID":"47659","FILE":"3508171","RA_OF_ASC_NODE":"221.9133","MEAN_ELEMENT_THEORY":"SGP4","CENTER_NAME":"EARTH","BSTAR":"-0.00011869000000","EPOCH":"2022-07-05T09:29:09.805632","MEAN_MOTION_DOT":"-0.00002049","SEMIMAJOR_AXIS":"6925.363"},{"RA_OF_ASC_NODE":"212.1494","CENTER_NAME":"EARTH","MEAN_ELEMENT_THEORY":"SGP4","NORAD_CAT_ID":"47660","FILE":"3508171","EPOCH":"2022-07-05T11:32:40.655040","BSTAR":"-0.00013272000000","MEAN_MOTION_DOT":"-0.00002257","SEMIMAJOR_AXIS":"6925.380","GP_ID":"207476647","TIME_SYSTEM":"UTC","TLE_LINE1":"1 47660U 21012AS  22186.48102610 -.00002257  00000-0 -13272-3 0  9996","REV_AT_EPOCH":"7932","ELEMENT_SET_NO":"999","INCLINATION":"53.0551","PERIOD":"95.593","DECAY_DATE":null,"TLE_LINE2":"2 47660  53.0551 212.1494 0001535  66.4086 293.7064 15.06389829 79324","COUNTRY_CODE":"US","OBJECT_NAME":"STARLINK-2044","APOAPSIS":"548.308","SITE":"AFETR","LAUNCH_DATE":"2021-02-16","REF_FRAME":"TEME","ARG_OF_PERICENTER":"66.4086","CLASSIFICATION_TYPE":"U","MEAN_MOTION_DDOT":"0.0000000000000","MEAN_MOTION":"15.06389829","EPHEMERIS_TYPE":"0","PERIAPSIS":"546.182","RCS_SIZE":"LARGE","OBJECT_TYPE":"PAYLOAD","ECCENTRICITY":"0.00015350","OBJECT_ID":"2021-012AS","MEAN_ANOMALY":"293.7064"},{"MEAN_ELEMENT_THEORY":"SGP4","RA_OF_ASC_NODE":"321.2911","CENTER_NAME":"EARTH","FILE":"3508171","NORAD_CAT_ID":"47661","SEMIMAJOR_AXIS":"6925.373","BSTAR":"-0.00004157100000","EPOCH":"2022-07-05T12:48:11.871936","MEAN_MOTION_DOT":"-0.00000900","GP_ID":"207477393","TLE_LINE1":"1 47661U 21012AT  22186.53347074 -.00000900  00000-0 -41571-4 0  9995","TIME_SYSTEM":"UTC","INCLINATION":"53.0571","REV_AT_EPOCH":"7780","ELEMENT_SET_NO":"999","PERIOD":"95.593","TLE_LINE2":"2 47661  53.0571 321.2911 0001402  63.4324 296.6808 15.06391905 77805","DECAY_DATE":null,"OBJECT_NAME":"STARLINK-2051","APOAPSIS":"548.209","SITE":"AFETR","COUNTRY_CODE":"US","LAUNCH_DATE":"2021-02-16","REF_FRAME":"TEME","ARG_OF_PERICENTER":"63.4324","MEAN_MOTION":"15.06391905","CLASSIFICATION_TYPE":"U","MEAN_MOTION_DDOT":"0.0000000000000","EPHEMERIS_TYPE":"0","PERIAPSIS":"546.267","OBJECT_TYPE":"PAYLOAD","RCS_SIZE":"LARGE","MEAN_ANOMALY":"296.6808","ECCENTRICITY":"0.00014020","OBJECT_ID":"2021-012AT"},{"MEAN_ANOMALY":"290.9967","OBJECT_ID":"2021-012AU","ECCENTRICITY":"0.00015700","OBJECT_TYPE":"PAYLOAD","RCS_SIZE":"LARGE","PERIAPSIS":"546.119","EPHEMERIS_TYPE":"0","MEAN_MOTION":"15.06402384","MEAN_MOTION_DDOT":"0.0000000000000","CLASSIFICATION_TYPE":"U","ARG_OF_PERICENTER":"69.1190","REF_FRAME":"TEME","LAUNCH_DATE":"2021-02-16","SITE":"AFETR","OBJECT_NAME":"STARLINK-2052","APOAPSIS":"548.294","COUNTRY_CODE":"US","TLE_LINE2":"2 47662  53.0573 320.7816 0001570  69.1190 290.9967 15.06402384 77320","DECAY_DATE":null,"PERIOD":"95.592","INCLINATION":"53.0573","ELEMENT_SET_NO":"999","REV_AT_EPOCH":"7732","TLE_LINE1":"1 47662U 21012AU  22186.64678568  .00001204  00000-0  99702-4 0  9998","TIME_SYSTEM":"UTC","GP_ID":"207454473","SEMIMAJOR_AXIS":"6925.341","MEAN_MOTION_DOT":"0.00001204","BSTAR":"0.00009970200000","EPOCH":"2022-07-05T15:31:22.282752","FILE":"3508167","NORAD_CAT_ID":"47662","RA_OF_ASC_NODE":"320.7816","CENTER_NAME":"EARTH","MEAN_ELEMENT_THEORY":"SGP4"},{"BSTAR":"-0.00006410500000","EPOCH":"2022-07-05T12:16:25.220928","MEAN_MOTION_DOT":"-0.00001236","SEMIMAJOR_AXIS":"6925.376","CENTER_NAME":"EARTH","RA_OF_ASC_NODE":"241.6970","MEAN_ELEMENT_THEORY":"SGP4","NORAD_CAT_ID":"47663","FILE":"3508171","REV_AT_EPOCH":"7893","ELEMENT_SET_NO":"999","INCLINATION":"53.0530","PERIOD":"95.593","TLE_LINE2":"2 47663  53.0530 241.6970 0001602  56.0503 304.0638 15.06390935 78933","DECAY_DATE":null,"GP_ID":"207476396","TLE_LINE1":"1 47663U 21012AV  22186.51140302 -.00001236  00000-0 -64105-4 0  9991","TIME_SYSTEM":"UTC","ARG_OF_PERICENTER":"56.0503","REF_FRAME":"TEME","CLASSIFICATION_TYPE":"U","MEAN_MOTION_DDOT":"0.0000000000000","MEAN_MOTION":"15.06390935","COUNTRY_CODE":"US","OBJECT_NAME":"STARLINK-2053","APOAPSIS":"548.351","SITE":"AFETR","LAUNCH_DATE":"2021-02-16","RCS_SIZE":"LARGE","OBJECT_TYPE":"PAYLOAD","OBJECT_ID":"2021-012AV","ECCENTRICITY":"0.00016020","MEAN_ANOMALY":"304.0638","EPHEMERIS_TYPE":"0","PERIAPSIS":"546.132"},{"INCLINATION":"53.0564","ELEMENT_SET_NO":"999","REV_AT_EPOCH":"7783","TLE_LINE2":"2 47664  53.0564 321.0773 0001447  72.6118 287.5029 15.06395706 77836","DECAY_DATE":null,"PERIOD":"95.592","GP_ID":"207477148","TLE_LINE1":"1 47664U 21012AW  22186.58139083 -.00001502  00000-0 -81966-4 0  9993","TIME_SYSTEM":"UTC","SEMIMAJOR_AXIS":"6925.362","MEAN_MOTION_DOT":"-0.00001502","BSTAR":"-0.00008196600000","EPOCH":"2022-07-05T13:57:12.167712","MEAN_ELEMENT_THEORY":"SGP4","RA_OF_ASC_NODE":"321.0773","CENTER_NAME":"EARTH","FILE":"3508171","NORAD_CAT_ID":"47664","OBJECT_TYPE":"PAYLOAD","RCS_SIZE":"LARGE","MEAN_ANOMALY":"287.5029","OBJECT_ID":"2021-012AW","ECCENTRICITY":"0.00014470","PERIAPSIS":"546.225","EPHEMERIS_TYPE":"0","REF_FRAME":"TEME","ARG_OF_PERICENTER":"72.6118","MEAN_MOTION":"15.06395706","MEAN_MOTION_DDOT":"0.0000000000000","CLASSIFICATION_TYPE":"U","SITE":"AFETR","APOAPSIS":"548.229","OBJECT_NAME":"STARLINK-2054","COUNTRY_CODE":"US","LAUNCH_DATE":"2021-02-16"},{"CLASSIFICATION_TYPE":"U","MEAN_MOTION_DDOT":"0.0000000000000","MEAN_MOTION":"15.06405897","REF_FRAME":"TEME","ARG_OF_PERICENTER":"101.8402","LAUNCH_DATE":"2021-02-16","COUNTRY_CODE":"US","OBJECT_NAME":"STARLINK-2056","APOAPSIS":"548.073","SITE":"AFETR","ECCENTRICITY":"0.00012670","OBJECT_ID":"2021-012AX","MEAN_ANOMALY":"258.2729","RCS_SIZE":"LARGE","OBJECT_TYPE":"PAYLOAD","EPHEMERIS_TYPE":"0","PERIAPSIS":"546.318","BSTAR":"-0.00000505820000","EPOCH":"2022-07-05T13:28:39.615168","MEAN_MOTION_DOT":"-0.00000357","SEMIMAJOR_AXIS":"6925.330","NORAD_CAT_ID":"47665","FILE":"3508171","RA_OF_ASC_NODE":"316.2069","CENTER_NAME":"EARTH","MEAN_ELEMENT_THEORY":"SGP4","PERIOD":"95.592","TLE_LINE2":"2 47665  53.0566 316.2069 0001267 101.8402 258.2729 15.06405897 77895","DECAY_DATE":null,"REV_AT_EPOCH":"7789","ELEMENT_SET_NO":"999","INCLINATION":"53.0566","TLE_LINE1":"1 47665U 21012AX  22186.56156962 -.00000357  00000-0 -50582-5 0  9995","TIME_SYSTEM":"UTC","GP_ID":"207476893"},{"REF_FRAME":"TEME","ARG_OF_PERICENTER":"70.8656","MEAN_MOTION":"15.06398101","CLASSIFICATION_TYPE":"U","MEAN_MOTION_DDOT":"0.0000000000000","OBJECT_NAME":"STARLINK-2057","APOAPSIS":"548.230","SITE":"AFETR","COUNTRY_CODE":"US","LAUNCH_DATE":"2021-02-16","OBJECT_TYPE":"PAYLOAD","RCS_SIZE":"LARGE","MEAN_ANOMALY":"289.2491","ECCENTRICITY":"0.00014590","OBJECT_ID":"2021-012AY","EPHEMERIS_TYPE":"0","PERIAPSIS":"546.209","SEMIMAJOR_AXIS":"6925.354","BSTAR":"-0.00004557600000","EPOCH":"2022-07-05T13:23:24.964512","MEAN_MOTION_DOT":"-0.00000960","CENTER_NAME":"EARTH","RA_OF_ASC_NODE":"316.5301","MEAN_ELEMENT_THEORY":"SGP4","FILE":"3508171","NORAD_CAT_ID":"47666","INCLINATION":"53.0556","REV_AT_EPOCH":"7789","ELEMENT_SET_NO":"999","PERIOD":"95.592","TLE_LINE2":"2 47666  53.0556 316.5301 0001459  70.8656 289.2491 15.06398101 77895","DECAY_DATE":null,"GP_ID":"207476147","TLE_LINE1":"1 47666U 21012AY  22186.55792783 -.00000960  00000-0 -45576-4 0  9998","TIME_SYSTEM":"UTC"}];
